{"fetched_at":"2026-03-30T13:17:50Z","count":15418,"tles":[{"name":"STARLINK-35483","line1":"1 66252U 25245U   26087.71847855  .00022817  00000+0  77983-3 0  9993","line2":"2 66252  53.1582 195.2394 0001032  79.7514 280.3603 15.30212407 24125","category":"Starlink"}]}